[{"OBJECT_NAME":"FLOCK 4G-2","OBJECT_ID":"2025-009BE","EPOCH":"2026-03-09T15:53:23.273952","MEAN_MOTION":15.2767526,"ECCENTRICITY":0.00031811,"INCLINATION":97.4044,"RA_OF_ASC_NODE":151.2221,"ARG_OF_PERICENTER":329.2677,"MEAN_ANOMALY":30.8376,"EPHEMERIS_TYPE":0,"CLASSIFICATION_TYPE":"U","NORAD_CAT_ID":62661,"ELEMENT_SET_NO":999,"REV_AT_EPOCH":12132,"BSTAR":0.00051068481,"MEAN_MOTION_DOT":0.00013752,"MEAN_MOTION_DDOT":0},{"OBJECT_NAME":"STARLINK-35899","OBJECT_ID":"2025-263N","EPOCH":"2026-03-09T04:19:07.303296","MEAN_MOTION":15.27553031,"ECCENTRICITY":0.00016875,"INCLINATION":43.0043,"RA_OF_ASC_NODE":353.338,"ARG_OF_PERICENTER":249.5468,"MEAN_ANOMALY":110.5203,"EPHEMERIS_TYPE":0,"CLASSIFICATION_TYPE":"U","NORAD_CAT_ID":66497,"ELEMENT_SET_NO":999,"REV_AT_EPOCH":1882,"BSTAR":0.0011551446,"MEAN_MOTION_DOT":0.00031635,"MEAN_MOTION_DDOT":0}]
